      2.10          N: GNSS NAV DATA                        RINEX VERSION / TYPE
fic2rin                                 07/20/2023 00:17:50 PGM / RUN BY / DATE
                                                            END OF HEADER
6  23  7 19  1 59 44.0  .576564576477D-03 -.375166564481D-11  .000000000000D+00
     .180000000000D+02  .915312500000D+02  .377337146178D-08  .189014994934D+01
     .479817390442D-05  .269247626420D-02  .279024243355D-05  .515370584488D+04
     .266384000000D+06 -.149011611938D-07  .138420068691D+01  .409781932831D-07
     .989098226837D+00  .338968750000D+03 -.760537781211D+00 -.791782980939D-08
     .293226499775D-09  .100000000000D+01  .227100000000D+04  .000000000000D+00
     .240000000000D+01  .000000000000D+00  .372529029846D-08  .180000000000D+02
     .259200000000D+06  .400000000000D+01
12 23  7 19  4  0  0.0 -.402417499572D-03 -.466116034659D-11  .000000000000D+00
     .101000000000D+03 -.175625000000D+02  .467269463649D-08  .139068159833D+01
    -.119023025036D-05  .867271842435D-02  .740028917789D-05  .515356879234D+04
     .273600000000D+06 -.173225998878D-06 -.649949728101D+00 -.163912773132D-06
     .964885570648D+00  .240781250000D+03  .138547063293D+01 -.798497546342D-08
    -.598239204778D-09  .100000000000D+01  .227100000000D+04  .000000000000D+00
     .240000000000D+01  .000000000000D+00 -.125728547573D-07  .101000000000D+03
     .266400000000D+06  .400000000000D+01
8  23  7 19  4  0  0.0 -.132903922349D-03 -.193267624127D-11  .000000000000D+00
     .880000000000D+02  .837187500000D+02  .419553190360D-08 -.135823588350D+01
     .433996319771D-05  .849560147617D-02  .101756304502D-04  .515372701263D+04
     .273600000000D+06  .800937414169D-07  .299026803004D+00 -.199303030968D-06
     .958273732450D+00  .186093750000D+03  .272213352036D+00 -.769282043685D-08
    -.267153985179D-09  .100000000000D+01  .227100000000D+04  .000000000000D+00
     .240000000000D+01  .000000000000D+00  .512227416039D-08  .880000000000D+02
     .266400000000D+06  .400000000000D+01
14 23  7 19  4  0  0.0  .126790255308D-03  .119371179608D-10  .000000000000D+00
     .141000000000D+03 -.140000000000D+02  .515271463125D-08  .132220984344D+01
    -.558793544769D-06  .340887822676D-02  .689364969730D-05  .515367322731D+04
     .273600000000D+06  .987201929092D-07 -.689422784975D+00  .316649675369D-07
     .948192294369D+00  .239000000000D+03 -.296999669898D+01 -.823177145775D-08
    -.643598237021D-09  .100000000000D+01  .227100000000D+04  .000000000000D+00
     .240000000000D+01  .000000000000D+00 -.791624188423D-08  .141000000000D+03
     .266400000000D+06  .400000000000D+01
13 23  7 19  4  0  0.0  .548970885575D-03  .500222085975D-11  .000000000000D+00
     .870000000000D+02 -.616562500000D+02  .407695553585D-08 -.172101121580D+01
    -.322982668877D-05  .721044209786D-02  .105593353510D-04  .515367560577D+04
     .273600000000D+06  .137835741043D-06 -.267591638481D+01 -.204890966415D-07
     .970321164194D+00  .176375000000D+03  .914156810369D+00 -.756567228348D-08
     .516092925913D-09  .100000000000D+01  .227100000000D+04  .000000000000D+00
     .240000000000D+01  .000000000000D+00 -.111758708954D-07  .870000000000D+02
     .266400000000D+06  .400000000000D+01
11 23  7 19  4  0  0.0 -.282153952867D-03 -.163709046319D-10  .000000000000D+00
     .225000000000D+03  .855312500000D+02  .432375153018D-08 -.192671950881D+01
     .456534326077D-05  .942185288295D-03  .231340527534D-05  .515356662941D+04
     .273600000000D+06 -.108033418655D-06  .142429115958D+01 -.335276126862D-07
     .965349662391D+00  .338343750000D+03 -.285199322677D+01 -.818355516363D-08
     .248224625266D-09  .100000000000D+01  .227100000000D+04  .000000000000D+00
     .240000000000D+01  .000000000000D+00 -.884756445885D-08  .993000000000D+03
     .266400000000D+06  .400000000000D+01
30 23  7 19  4  0  0.0 -.503225717694D-03  .284217094304D-11  .000000000000D+00
     .107000000000D+03  .198437500000D+02  .558987569790D-08  .200622151095D+01
     .108033418655D-05  .658395770006D-02  .626966357231D-05  .515378499031D+04
     .273600000000D+06 -.180676579475D-06 -.175988102963D+01  .279396772385D-07
     .935038159247D+00  .247906250000D+03 -.254759437207D+01 -.839070664947D-08
     .476448417418D-09  .100000000000D+01  .227100000000D+04  .000000000000D+00
     .240000000000D+01  .000000000000D+00  .372529029846D-08  .107000000000D+03
     .266400000000D+06  .400000000000D+01
21 23  7 19  4  0  0.0  .151980668306D-03 -.454747350886D-12  .000000000000D+00
     .850000000000D+02  .851250000000D+02  .450340187048D-08 -.137412254186D+01
     .459887087345D-05  .246987155406D-01  .345148146152D-05  .515359491920D+04
     .273600000000D+06 -.363215804100D-06  .128733704950D+01 -.875443220139D-07
     .961640378010D+00  .322937500000D+03 -.734010048385D+00 -.842999400023D-08
     .477519890620D-09  .100000000000D+01  .227100000000D+04  .000000000000D+00
     .340000000000D+01  .000000000000D+00 -.102445483208D-07  .850000000000D+02
     .266400000000D+06  .400000000000D+01
26 23  7 19  4  0  0.0  .236019026488D-03 -.125055521494D-11  .000000000000D+00
     .113000000000D+03 -.224375000000D+02  .558058959681D-08  .485602604258D+00
    -.100955367088D-05  .797487620730D-02  .599958002567D-05  .515371495438D+04
     .273600000000D+06  .130385160446D-07 -.789508378033D+00  .409781932831D-07
     .933267721158D+00  .244562500000D+03  .462671023968D+00 -.856535678149D-08
    -.610739725475D-09  .100000000000D+01  .227100000000D+04  .000000000000D+00
     .340000000000D+01  .000000000000D+00  .698491930962D-08  .113000000000D+03
     .266400000000D+06  .400000000000D+01
25 23  7 19  4  0  0.0  .456981826574D-03  .227373675443D-11  .000000000000D+00
     .790000000000D+02 -.203125000000D+02  .510735559900D-08  .118901197448D+01
    -.105984508991D-05  .110536941793D-01  .680610537529D-05  .515369989014D+04
     .273600000000D+06 -.214204192162D-06 -.732861559677D+00  .968575477600D-07
     .952540787639D+00  .247281250000D+03  .105207679748D+01 -.832391815317D-08
    -.578238371663D-09  .100000000000D+01  .227100000000D+04  .000000000000D+00
     .240000000000D+01  .000000000000D+00  .558793544769D-08  .790000000000D+02
     .266400000000D+06  .400000000000D+01
19 23  7 19  4  0  0.0  .345817301422D-03  .511590769747D-11  .000000000000D+00
     .970000000000D+02  .933125000000D+02  .397802284348D-08  .753096333874D+00
     .448524951935D-05  .950131937861D-02  .102669000626D-04  .515363648224D+04
     .273600000000D+06  .132247805595D-06  .433305712831D+00 -.163912773132D-06
     .972933494082D+00  .189281250000D+03  .235944487473D+01 -.777032366517D-08
    -.284654714154D-09  .100000000000D+01  .227100000000D+04  .000000000000D+00
     .240000000000D+01  .000000000000D+00 -.153668224812D-07  .970000000000D+02
     .266400000000D+06  .400000000000D+01
17 23  7 19  4  0  0.0  .721238553524D-03  .795807864051D-12  .000000000000D+00
     .680000000000D+02  .103625000000D+03  .389159067180D-08 -.141420469930D+01
     .535324215889D-05  .135901926551D-01  .102613121271D-04  .515355552673D+04
     .273600000000D+06 -.197440385818D-06  .388834349106D+00  .264495611191D-06
     .973866405719D+00  .192906250000D+03 -.140774776218D+01 -.776246619502D-08
    -.296798077117D-09  .100000000000D+01  .227100000000D+04  .000000000000D+00
     .240000000000D+01  .000000000000D+00 -.111758708954D-07  .680000000000D+02
     .266400000000D+06  .400000000000D+01
28 23  7 19  4  0  0.0  .819717533886D-04 -.170530256582D-11  .000000000000D+00
     .300000000000D+02  .189062500000D+02  .495449208877D-08  .626421126554D+00
     .109896063805D-05  .626312568784D-03  .672601163387D-05  .515370729446D+04
     .273600000000D+06 -.502914190292D-07 -.180191871941D+01  .800937414169D-07
     .961078507749D+00  .250625000000D+03  .164990847443D+01 -.811176645906D-08
     .502163774280D-09  .100000000000D+01  .227100000000D+04  .000000000000D+00
     .240000000000D+01  .000000000000D+00 -.977888703346D-08  .286000000000D+03
     .266400000000D+06  .400000000000D+01
23 23  7 19  4  0  0.0  .448483042419D-04  .420641299570D-11  .000000000000D+00
     .150000000000D+02 -.920937500000D+02  .419160316853D-08  .188721333440D+01
    -.490248203278D-05  .336735206656D-02  .262074172497D-05  .515366963005D+04
     .273600000000D+06 -.130385160446D-07  .239295777367D+01  .186264514923D-07
     .974691596846D+00  .333750000000D+03 -.310597706446D+01 -.809319425688D-08
    -.156435087578D-09  .100000000000D+01  .227100000000D+04  .000000000000D+00
     .240000000000D+01  .000000000000D+00 -.838190317154D-08  .783000000000D+03
     .266400000000D+06  .400000000000D+01
18 23  7 19  4  0  0.0 -.350817106664D-03 -.140971678775D-10  .000000000000D+00
     .203000000000D+03  .900625000000D+02  .420374653149D-08  .292142179445D+01
     .467523932457D-05  .346959824674D-02  .264495611191D-05  .515366658211D+04
     .273600000000D+06 -.502914190292D-07  .139270863225D+01  .558793544769D-08
     .973801259051D+00  .334968750000D+03  .313049964862D+01 -.809533720329D-08
     .202865593023D-09  .100000000000D+01  .227100000000D+04  .000000000000D+00
     .240000000000D+01  .000000000000D+00 -.838190317154D-08  .459000000000D+03
     .266400000000D+06  .400000000000D+01
22 23  7 19  4  0  0.0  .514800194651D-03  .545696821064D-11  .000000000000D+00
     .550000000000D+02 -.499375000000D+02  .427053502778D-08 -.151341574677D+01
    -.228360295296D-05  .143727373797D-01  .106412917376D-04  .515366108894D+04
     .273600000000D+06  .167638063431D-06 -.273136130332D+01  .320374965668D-06
     .963243616266D+00  .172843750000D+03 -.179795877426D+01 -.769603485646D-08
     .423231915022D-09  .100000000000D+01  .227100000000D+04  .000000000000D+00
     .340000000000D+01  .630000000000D+02 -.838190317154D-08  .550000000000D+02
     .266400000000D+06  .400000000000D+01
